CCSDS_OMM_VERS = 2.0
CREATION_DATE  = 
ORIGINATOR     = 

OBJECT_NAME    = STARLINK-35717
OBJECT_ID      = 2025-280U
CENTER_NAME    = EARTH
REF_FRAME      = TEME
TIME_SYSTEM    = UTC
MEAN_ELEMENT_THEORY = SGP/SGP4

EPOCH          = 2025-12-29T08:00:01.999872
MEAN_MOTION    = 15.48038203
ECCENTRICITY   = .00032626
INCLINATION    = 70.0001
RA_OF_ASC_NODE = 152.9330
ARG_OF_PERICENTER = 269.2919
MEAN_ANOMALY   = 318.2927

EPHEMERIS_TYPE = 0
CLASSIFICATION_TYPE = U
NORAD_CAT_ID   = 66839
ELEMENT_SET_NO = 999
REV_AT_EPOCH   = 556
BSTAR          = -.42862386E-1
MEAN_MOTION_DOT = -.2010117E-1
MEAN_MOTION_DDOT = 0

CCSDS_OMM_VERS = 2.0
CREATION_DATE  = 
ORIGINATOR     = 

OBJECT_NAME    = STARLINK-35837
OBJECT_ID      = 2025-280V
CENTER_NAME    = EARTH
REF_FRAME      = TEME
TIME_SYSTEM    = UTC
MEAN_ELEMENT_THEORY = SGP/SGP4

EPOCH          = 2025-12-29T08:00:01.999872
MEAN_MOTION    = 15.44054281
ECCENTRICITY   = .0003256
INCLINATION    = 70.0000
RA_OF_ASC_NODE = 152.9520
ARG_OF_PERICENTER = 272.3297
MEAN_ANOMALY   = 298.6872

EPHEMERIS_TYPE = 0
CLASSIFICATION_TYPE = U
NORAD_CAT_ID   = 66840
ELEMENT_SET_NO = 999
REV_AT_EPOCH   = 556
BSTAR          = -.49017471E-1
MEAN_MOTION_DOT = -.2003678E-1
MEAN_MOTION_DDOT = 0

CCSDS_OMM_VERS = 2.0
CREATION_DATE  = 
ORIGINATOR     = 

OBJECT_NAME    = STARLINK-35715
OBJECT_ID      = 2025-280W
CENTER_NAME    = EARTH
REF_FRAME      = TEME
TIME_SYSTEM    = UTC
MEAN_ELEMENT_THEORY = SGP/SGP4

EPOCH          = 2025-12-29T08:00:01.999872
MEAN_MOTION    = 15.44053912
ECCENTRICITY   = .00032515
INCLINATION    = 69.9995
RA_OF_ASC_NODE = 152.9497
ARG_OF_PERICENTER = 272.2546
MEAN_ANOMALY   = 300.7046

EPHEMERIS_TYPE = 0
CLASSIFICATION_TYPE = U
NORAD_CAT_ID   = 66841
ELEMENT_SET_NO = 999
REV_AT_EPOCH   = 556
BSTAR          = -.48808867E-1
MEAN_MOTION_DOT = -.1996035E-1
MEAN_MOTION_DDOT = 0

CCSDS_OMM_VERS = 2.0
CREATION_DATE  = 
ORIGINATOR     = 

OBJECT_NAME    = STARLINK-35769
OBJECT_ID      = 2025-280X
CENTER_NAME    = EARTH
REF_FRAME      = TEME
TIME_SYSTEM    = UTC
MEAN_ELEMENT_THEORY = SGP/SGP4

EPOCH          = 2025-12-28T22:00:01.999584
MEAN_MOTION    = 15.52139103
ECCENTRICITY   = .00037617
INCLINATION    = 69.9998
RA_OF_ASC_NODE = 154.0583
ARG_OF_PERICENTER = 277.1067
MEAN_ANOMALY   = 157.8819

EPHEMERIS_TYPE = 0
CLASSIFICATION_TYPE = U
NORAD_CAT_ID   = 66842
ELEMENT_SET_NO = 999
REV_AT_EPOCH   = 549
BSTAR          = -.3841783E-1
MEAN_MOTION_DOT = -.2077184E-1
MEAN_MOTION_DDOT = 0

CCSDS_OMM_VERS = 2.0
CREATION_DATE  = 
ORIGINATOR     = 

OBJECT_NAME    = STARLINK-35997
OBJECT_ID      = 2025-280Y
CENTER_NAME    = EARTH
REF_FRAME      = TEME
TIME_SYSTEM    = UTC
MEAN_ELEMENT_THEORY = SGP/SGP4

EPOCH          = 2025-12-29T08:00:01.999872
MEAN_MOTION    = 15.48615917
ECCENTRICITY   = .0003089
INCLINATION    = 70.0001
RA_OF_ASC_NODE = 152.9177
ARG_OF_PERICENTER = 268.4201
MEAN_ANOMALY   = 332.5796

EPHEMERIS_TYPE = 0
CLASSIFICATION_TYPE = U
NORAD_CAT_ID   = 66843
ELEMENT_SET_NO = 999
REV_AT_EPOCH   = 556
BSTAR          = -.4209072E-1
MEAN_MOTION_DOT = -.2013838E-1
MEAN_MOTION_DDOT = 0

CCSDS_OMM_VERS = 2.0
CREATION_DATE  = 
ORIGINATOR     = 

OBJECT_NAME    = STARLINK-36073
OBJECT_ID      = 2025-280Z
CENTER_NAME    = EARTH
REF_FRAME      = TEME
TIME_SYSTEM    = UTC
MEAN_ELEMENT_THEORY = SGP/SGP4

EPOCH          = 2025-12-29T06:00:02.000160
MEAN_MOTION    = 15.47007937
ECCENTRICITY   = .00036645
INCLINATION    = 69.9998
RA_OF_ASC_NODE = 153.1537
ARG_OF_PERICENTER = 276.5521
MEAN_ANOMALY   = 211.0506

EPHEMERIS_TYPE = 0
CLASSIFICATION_TYPE = U
NORAD_CAT_ID   = 66844
ELEMENT_SET_NO = 999
REV_AT_EPOCH   = 554
BSTAR          = -.43373144E-1
MEAN_MOTION_DOT = -.1967411E-1
MEAN_MOTION_DDOT = 0

CCSDS_OMM_VERS = 2.0
CREATION_DATE  = 
ORIGINATOR     = 

OBJECT_NAME    = STARLINK-36068
OBJECT_ID      = 2025-280AA
CENTER_NAME    = EARTH
REF_FRAME      = TEME
TIME_SYSTEM    = UTC
MEAN_ELEMENT_THEORY = SGP/SGP4

EPOCH          = 2025-12-29T03:49:39.450432
MEAN_MOTION    = 15.51670207
ECCENTRICITY   = .00062268
INCLINATION    = 70.0004
RA_OF_ASC_NODE = 153.3819
ARG_OF_PERICENTER = 325.0818
MEAN_ANOMALY   = 34.9959

EPHEMERIS_TYPE = 0
CLASSIFICATION_TYPE = U
NORAD_CAT_ID   = 66845
ELEMENT_SET_NO = 999
REV_AT_EPOCH   = 548
BSTAR          = .67209579E-3
MEAN_MOTION_DOT = .4017E-3
MEAN_MOTION_DDOT = 0

CCSDS_OMM_VERS = 2.0
CREATION_DATE  = 
ORIGINATOR     = 

OBJECT_NAME    = STARLINK-36055
OBJECT_ID      = 2025-280AB
CENTER_NAME    = EARTH
REF_FRAME      = TEME
TIME_SYSTEM    = UTC
MEAN_ELEMENT_THEORY = SGP/SGP4

EPOCH          = 2025-12-29T06:00:02.000160
MEAN_MOTION    = 15.43552011
ECCENTRICITY   = .00034816
INCLINATION    = 69.9999
RA_OF_ASC_NODE = 153.1721
ARG_OF_PERICENTER = 274.4169
MEAN_ANOMALY   = 197.2085

EPHEMERIS_TYPE = 0
CLASSIFICATION_TYPE = U
NORAD_CAT_ID   = 66846
ELEMENT_SET_NO = 999
REV_AT_EPOCH   = 554
BSTAR          = -.49479182E-1
MEAN_MOTION_DOT = -.1990056E-1
MEAN_MOTION_DDOT = 0

CCSDS_OMM_VERS = 2.0
CREATION_DATE  = 
ORIGINATOR     = 

OBJECT_NAME    = STARLINK-36061
OBJECT_ID      = 2025-280AC
CENTER_NAME    = EARTH
REF_FRAME      = TEME
TIME_SYSTEM    = UTC
MEAN_ELEMENT_THEORY = SGP/SGP4

EPOCH          = 2025-12-29T06:00:02.000160
MEAN_MOTION    = 15.44295196
ECCENTRICITY   = .00035367
INCLINATION    = 70.0000
RA_OF_ASC_NODE = 153.1642
ARG_OF_PERICENTER = 274.4543
MEAN_ANOMALY   = 204.1199

EPHEMERIS_TYPE = 0
CLASSIFICATION_TYPE = U
NORAD_CAT_ID   = 66847
ELEMENT_SET_NO = 999
REV_AT_EPOCH   = 550
BSTAR          = -.48382934E-1
MEAN_MOTION_DOT = -.1995284E-1
MEAN_MOTION_DDOT = 0

CCSDS_OMM_VERS = 2.0
CREATION_DATE  = 
ORIGINATOR     = 

OBJECT_NAME    = STARLINK-36091
OBJECT_ID      = 2025-281A
CENTER_NAME    = EARTH
REF_FRAME      = TEME
TIME_SYSTEM    = UTC
MEAN_ELEMENT_THEORY = SGP/SGP4

EPOCH          = 2025-12-29T03:12:30.739968
MEAN_MOTION    = 15.50691098
ECCENTRICITY   = .00029563
INCLINATION    = 43.0005
RA_OF_ASC_NODE = 23.7883
ARG_OF_PERICENTER = 286.9242
MEAN_ANOMALY   = 73.1294

EPHEMERIS_TYPE = 0
CLASSIFICATION_TYPE = U
NORAD_CAT_ID   = 66848
ELEMENT_SET_NO = 999
REV_AT_EPOCH   = 537
BSTAR          = .25452422E-2
MEAN_MOTION_DOT = .152539E-2
MEAN_MOTION_DDOT = 0

CCSDS_OMM_VERS = 2.0
CREATION_DATE  = 
ORIGINATOR     = 

OBJECT_NAME    = STARLINK-36102
OBJECT_ID      = 2025-281B
CENTER_NAME    = EARTH
REF_FRAME      = TEME
TIME_SYSTEM    = UTC
MEAN_ELEMENT_THEORY = SGP/SGP4

EPOCH          = 2025-12-29T03:12:01.138464
MEAN_MOTION    = 15.50646354
ECCENTRICITY   = .00027065
INCLINATION    = 43.0016
RA_OF_ASC_NODE = 23.7855
ARG_OF_PERICENTER = 287.4793
MEAN_ANOMALY   = 72.5771

EPHEMERIS_TYPE = 0
CLASSIFICATION_TYPE = U
NORAD_CAT_ID   = 66849
ELEMENT_SET_NO = 999
REV_AT_EPOCH   = 537
BSTAR          = .15931511E-2
MEAN_MOTION_DOT = .94489E-3
MEAN_MOTION_DDOT = 0

CCSDS_OMM_VERS = 2.0
CREATION_DATE  = 
ORIGINATOR     = 

OBJECT_NAME    = STARLINK-36105
OBJECT_ID      = 2025-281C
CENTER_NAME    = EARTH
REF_FRAME      = TEME
TIME_SYSTEM    = UTC
MEAN_ELEMENT_THEORY = SGP/SGP4

EPOCH          = 2025-12-29T00:00:00.999648
MEAN_MOTION    = 15.50603924
ECCENTRICITY   = .00012827
INCLINATION    = 43.0006
RA_OF_ASC_NODE = 24.5603
ARG_OF_PERICENTER = 256.1093
MEAN_ANOMALY   = 80.7086

EPHEMERIS_TYPE = 0
CLASSIFICATION_TYPE = U
NORAD_CAT_ID   = 66850
ELEMENT_SET_NO = 999
REV_AT_EPOCH   = 399
BSTAR          = -.13753241E-2
MEAN_MOTION_DOT = -.80273E-3
MEAN_MOTION_DDOT = 0

CCSDS_OMM_VERS = 2.0
CREATION_DATE  = 
ORIGINATOR     = 

OBJECT_NAME    = STARLINK-36094
OBJECT_ID      = 2025-281D
CENTER_NAME    = EARTH
REF_FRAME      = TEME
TIME_SYSTEM    = UTC
MEAN_ELEMENT_THEORY = SGP/SGP4

EPOCH          = 2025-12-29T01:38:16.324800
MEAN_MOTION    = 15.50643214
ECCENTRICITY   = .00010241
INCLINATION    = 43.0004
RA_OF_ASC_NODE = 24.1577
ARG_OF_PERICENTER = 266.6451
MEAN_ANOMALY   = 93.4293

EPHEMERIS_TYPE = 0
CLASSIFICATION_TYPE = U
NORAD_CAT_ID   = 66851
ELEMENT_SET_NO = 999
REV_AT_EPOCH   = 536
BSTAR          = .1617731E-2
MEAN_MOTION_DOT = .95953E-3
MEAN_MOTION_DDOT = 0

CCSDS_OMM_VERS = 2.0
CREATION_DATE  = 
ORIGINATOR     = 

OBJECT_NAME    = STARLINK-35992
OBJECT_ID      = 2025-281E
CENTER_NAME    = EARTH
REF_FRAME      = TEME
TIME_SYSTEM    = UTC
MEAN_ELEMENT_THEORY = SGP/SGP4

EPOCH          = 2025-12-29T01:37:46.788960
MEAN_MOTION    = 15.50726157
ECCENTRICITY   = .00020265
INCLINATION    = 42.9996
RA_OF_ASC_NODE = 24.1550
ARG_OF_PERICENTER = 136.0462
MEAN_ANOMALY   = 224.0559

EPHEMERIS_TYPE = 0
CLASSIFICATION_TYPE = U
NORAD_CAT_ID   = 66852
ELEMENT_SET_NO = 999
REV_AT_EPOCH   = 536
BSTAR          = .28705888E-2
MEAN_MOTION_DOT = .172735E-2
MEAN_MOTION_DDOT = 0

CCSDS_OMM_VERS = 2.0
CREATION_DATE  = 
ORIGINATOR     = 

OBJECT_NAME    = STARLINK-35986
OBJECT_ID      = 2025-281F
CENTER_NAME    = EARTH
REF_FRAME      = TEME
TIME_SYSTEM    = UTC
MEAN_ELEMENT_THEORY = SGP/SGP4

EPOCH          = 2025-12-29T00:00:00.999648
MEAN_MOTION    = 15.50598803
ECCENTRICITY   = .00007476
INCLINATION    = 43.0006
RA_OF_ASC_NODE = 24.5461
ARG_OF_PERICENTER = 240.3912
MEAN_ANOMALY   = 102.1805

EPHEMERIS_TYPE = 0
CLASSIFICATION_TYPE = U
NORAD_CAT_ID   = 66853
ELEMENT_SET_NO = 999
REV_AT_EPOCH   = 399
BSTAR          = -.12605494E-2
MEAN_MOTION_DOT = -.73648E-3
MEAN_MOTION_DDOT = 0

